[
    {
        "Altitude(m)": 576718.0139245664,
        "Argument of Periapsis(deg)": -0.03013754771062987,
        "Eccentricity": 0.0,
        "Inclination(deg)": 97.0,
        "Latitude(deg)": -35.06320777203327,
        "Longitude(deg)": -138.05337742134785,
        "Mean Anomaly(deg)": -144.87760897441666,
        "RAAN(deg)": 150.0079294048247,
        "Satellite Name": "Starlink Shell 3 1901",
        "Satellite Number": 1901,
        "Semi-Major Axis(m)": 6938478.169268562,
        "Time(s)": 760
    },
    {
        "Altitude(m)": 576969.1250911248,
        "Argument of Periapsis(deg)": -0.030534094391032898,
        "Eccentricity": 0.0,
        "Inclination(deg)": 97.0,
        "Latitude(deg)": -35.68182305231317,
        "Longitude(deg)": -138.20910459772776,
        "Mean Anomaly(deg)": -144.25213277671165,
        "RAAN(deg)": 150.0080337390987,
        "Satellite Name": "Starlink Shell 3 1901",
        "Satellite Number": 1901,
        "Semi-Major Axis(m)": 6938478.169268562,
        "Time(s)": 770
    },
    {
        "Altitude(m)": 577221.0380664133,
        "Argument of Periapsis(deg)": -0.030930641071435925,
        "Eccentricity": 0.0,
        "Inclination(deg)": 97.0,
        "Latitude(deg)": -36.30023666500364,
        "Longitude(deg)": -138.3665967649927,
        "Mean Anomaly(deg)": -143.6266565790066,
        "RAAN(deg)": 150.0081380733727,
        "Satellite Name": "Starlink Shell 3 1901",
        "Satellite Number": 1901,
        "Semi-Major Axis(m)": 6938478.169268562,
        "Time(s)": 780
    },
    {
        "Altitude(m)": 577473.6560282832,
        "Argument of Periapsis(deg)": -0.031327187751838945,
        "Eccentricity": 0.0,
        "Inclination(deg)": 97.0,
        "Latitude(deg)": -36.91844395129005,
        "Longitude(deg)": -138.52592207003724,
        "Mean Anomaly(deg)": -143.00118038130154,
        "RAAN(deg)": 150.00824240764672,
        "Satellite Name": "Starlink Shell 3 1901",
        "Satellite Number": 1901,
        "Semi-Major Axis(m)": 6938478.169268562,
        "Time(s)": 790
    },
    {
        "Altitude(m)": 577726.8816716812,
        "Argument of Periapsis(deg)": -0.031723734432241975,
        "Eccentricity": 0.0,
        "Inclination(deg)": 97.0,
        "Latitude(deg)": -37.53644010652721,
        "Longitude(deg)": -138.6871521722415,
        "Mean Anomaly(deg)": -142.37570418359653,
        "RAAN(deg)": 150.00834674192072,
        "Satellite Name": "Starlink Shell 3 1901",
        "Satellite Number": 1901,
        "Semi-Major Axis(m)": 6938478.169268562,
        "Time(s)": 800
    },
    {
        "Altitude(m)": 577980.6172528603,
        "Argument of Periapsis(deg)": -0.032120281112645,
        "Eccentricity": 0.0,
        "Inclination(deg)": 97.0,
        "Latitude(deg)": -38.15422016921685,
        "Longitude(deg)": -138.85036191795095,
        "Mean Anomaly(deg)": -141.75022798589146,
        "RAAN(deg)": 150.00845107619475,
        "Satellite Name": "Starlink Shell 3 1901",
        "Satellite Number": 1901,
        "Semi-Major Axis(m)": 6938478.169268562,
        "Time(s)": 810
    },
    {
        "Altitude(m)": 578234.7646337542,
        "Argument of Periapsis(deg)": -0.03251682779304802,
        "Eccentricity": 0.0,
        "Inclination(deg)": 97.0,
        "Latitude(deg)": -38.77177900917433,
        "Longitude(deg)": -139.01562902739687,
        "Mean Anomaly(deg)": -141.12475178818642,
        "RAAN(deg)": 150.00855541046874,
        "Satellite Name": "Starlink Shell 3 1901",
        "Satellite Number": 1901,
        "Semi-Major Axis(m)": 6938478.169268562,
        "Time(s)": 820
    },
    {
        "Altitude(m)": 578489.2253264801,
        "Argument of Periapsis(deg)": -0.032913374473451044,
        "Eccentricity": 0.0,
        "Inclination(deg)": 97.0,
        "Latitude(deg)": -39.3891113148205,
        "Longitude(deg)": -139.18303530795714,
        "Mean Anomaly(deg)": -140.4992755904814,
        "RAAN(deg)": 150.00865974474274,
        "Satellite Name": "Starlink Shell 3 1901",
        "Satellite Number": 1901,
        "Semi-Major Axis(m)": 6938478.169268562,
        "Time(s)": 830
    },
    {
        "Altitude(m)": 578743.9005379647,
        "Argument of Periapsis(deg)": -0.03330992115385407,
        "Eccentricity": 0.0,
        "Inclination(deg)": 97.0,
        "Latitude(deg)": -40.00621157952863,
        "Longitude(deg)": -139.35266636913389,
        "Mean Anomaly(deg)": -139.87379939277633,
        "RAAN(deg)": 150.00876407901674,
        "Satellite Name": "Starlink Shell 3 1901",
        "Satellite Number": 1901,
        "Semi-Major Axis(m)": 6938478.169268562,
        "Time(s)": 840
    },
    {
        "Altitude(m)": 578998.6912146822,
        "Argument of Periapsis(deg)": -0.0337064678342571,
        "Eccentricity": 0.0,
        "Inclination(deg)": 97.0,
        "Latitude(deg)": -40.623074086944854,
        "Longitude(deg)": -139.52461135335253,
        "Mean Anomaly(deg)": -139.2483231950713,
        "RAAN(deg)": 150.00886841329077,
        "Satellite Name": "Starlink Shell 3 1901",
        "Satellite Number": 1901,
        "Semi-Major Axis(m)": 6938478.169268562,
        "Time(s)": 850
    },
    {
        "Altitude(m)": 579253.4980874418,
        "Argument of Periapsis(deg)": -0.03410301451466012,
        "Eccentricity": 0.0,
        "Inclination(deg)": 97.0,
        "Latitude(deg)": -41.239692895193805,
        "Longitude(deg)": -139.69896436490362,
        "Mean Anomaly(deg)": -138.62284699736628,
        "RAAN(deg)": 150.0089727475648,
        "Satellite Name": "Starlink Shell 3 1901",
        "Satellite Number": 1901,
        "Semi-Major Axis(m)": 6938478.169268562,
        "Time(s)": 860
    },
    {
        "Altitude(m)": 579508.2217162534,
        "Argument of Periapsis(deg)": -0.034499561195063144,
        "Eccentricity": 0.0,
        "Inclination(deg)": 97.0,
        "Latitude(deg)": -41.85606181987941,
        "Longitude(deg)": -139.8758233960797,
        "Mean Anomaly(deg)": -137.99737079966118,
        "RAAN(deg)": 150.0090770818388,
        "Satellite Name": "Starlink Shell 3 1901",
        "Satellite Number": 1901,
        "Semi-Major Axis(m)": 6938478.169268562,
        "Time(s)": 870
    },
    {
        "Altitude(m)": 579762.7625351939,
        "Argument of Periapsis(deg)": -0.03489610787546617,
        "Eccentricity": 0.0,
        "Inclination(deg)": 97.0,
        "Latitude(deg)": -42.472174415766965,
        "Longitude(deg)": -140.05529179505024,
        "Mean Anomaly(deg)": -137.37189460195617,
        "RAAN(deg)": 150.00918141611282,
        "Satellite Name": "Starlink Shell 3 1901",
        "Satellite Number": 1901,
        "Semi-Major Axis(m)": 6938478.169268562,
        "Time(s)": 880
    },
    {
        "Altitude(m)": 580017.0208973226,
        "Argument of Periapsis(deg)": -0.0352926545558692,
        "Eccentricity": 0.0,
        "Inclination(deg)": 97.0,
        "Latitude(deg)": -43.08802395703918,
        "Longitude(deg)": -140.23747807483372,
        "Mean Anomaly(deg)": -136.74641840425116,
        "RAAN(deg)": 150.0092857503868,
        "Satellite Name": "Starlink Shell 3 1901",
        "Satellite Number": 1901,
        "Semi-Major Axis(m)": 6938478.169268562,
        "Time(s)": 890
    },
    {
        "Altitude(m)": 580270.8971195443,
        "Argument of Periapsis(deg)": -0.035689201236272214,
        "Eccentricity": 0.0,
        "Inclination(deg)": 97.0,
        "Latitude(deg)": -43.70360341599338,
        "Longitude(deg)": -140.42249574631003,
        "Mean Anomaly(deg)": -136.12094220654603,
        "RAAN(deg)": 150.0093900846608,
        "Satellite Name": "Starlink Shell 3 1901",
        "Satellite Number": 1901,
        "Semi-Major Axis(m)": 6938478.169268562,
        "Time(s)": 900
    },
    {
        "Altitude(m)": 580524.2915274722,
        "Argument of Periapsis(deg)": -0.036085747916675244,
        "Eccentricity": 0.0,
        "Inclination(deg)": 97.0,
        "Latitude(deg)": -44.31890544003712,
        "Longitude(deg)": -140.61046469031987,
        "Mean Anomaly(deg)": -135.49546600884105,
        "RAAN(deg)": 150.00949441893482,
        "Satellite Name": "Starlink Shell 3 1901",
        "Satellite Number": 1901,
        "Semi-Major Axis(m)": 6938478.169268562,
        "Time(s)": 910
    },
    {
        "Altitude(m)": 580777.1045002206,
        "Argument of Periapsis(deg)": -0.03648229459707827,
        "Eccentricity": 0.0,
        "Inclination(deg)": 97.0,
        "Latitude(deg)": -44.93392232683195,
        "Longitude(deg)": -140.80151104549623,
        "Mean Anomaly(deg)": -134.869989811136,
        "RAAN(deg)": 150.00959875320882,
        "Satellite Name": "Starlink Shell 3 1901",
        "Satellite Number": 1901,
        "Semi-Major Axis(m)": 6938478.169268562,
        "Time(s)": 920
    },
    {
        "Altitude(m)": 581029.2365151278,
        "Argument of Periapsis(deg)": -0.0368788412774813,
        "Eccentricity": 0.0,
        "Inclination(deg)": 97.0,
        "Latitude(deg)": -45.54864599740765,
        "Longitude(deg)": -140.99576712735148,
        "Mean Anomaly(deg)": -134.24451361343094,
        "RAAN(deg)": 150.00970308748285,
        "Satellite Name": "Starlink Shell 3 1901",
        "Satellite Number": 1901,
        "Semi-Major Axis(m)": 6938478.169268562,
        "Time(s)": 930
    },
    {
        "Altitude(m)": 581280.5881923827,
        "Argument of Periapsis(deg)": -0.037275387957884314,
        "Eccentricity": 0.0,
        "Inclination(deg)": 97.0,
        "Latitude(deg)": -46.163067967055284,
        "Longitude(deg)": -141.19337289441995,
        "Mean Anomaly(deg)": -133.61903741572593,
        "RAAN(deg)": 150.00980742175685,
        "Satellite Name": "Starlink Shell 3 1901",
        "Satellite Number": 1901,
        "Semi-Major Axis(m)": 6938478.169268562,
        "Time(s)": 940
    }
]